[{"OBJECT_NAME":"STARLINK-3616","OBJECT_ID":"2022-017Q","EPOCH":"2026-03-09T22:44:21.814944","MEAN_MOTION":15.08830354,"ECCENTRICITY":0.00014454,"INCLINATION":53.2204,"RA_OF_ASC_NODE":348.1168,"ARG_OF_PERICENTER":88.017,"MEAN_ANOMALY":272.0988,"EPHEMERIS_TYPE":0,"CLASSIFICATION_TYPE":"U","NORAD_CAT_ID":51782,"ELEMENT_SET_NO":999,"REV_AT_EPOCH":22222,"BSTAR":-5.8310681e-5,"MEAN_MOTION_DOT":-1.216e-5,"MEAN_MOTION_DDOT":0},{"OBJECT_NAME":"COSMOS 2251 DEB","OBJECT_ID":"1993-036AJC","EPOCH":"2026-03-07T22:08:36.037248","MEAN_MOTION":15.09712263,"ECCENTRICITY":0.00171889,"INCLINATION":73.9945,"RA_OF_ASC_NODE":155.7464,"ARG_OF_PERICENTER":279.7001,"MEAN_ANOMALY":80.2249,"EPHEMERIS_TYPE":0,"CLASSIFICATION_TYPE":"U","NORAD_CAT_ID":35073,"ELEMENT_SET_NO":999,"REV_AT_EPOCH":68760,"BSTAR":0.00527522,"MEAN_MOTION_DOT":0.00086343,"MEAN_MOTION_DDOT":0}]
